NORAD_CAT_ID,OBJECT_NAME,OBJECT_TYPE,EPOCH,MEAN_MOTION,ECCENTRICITY,INCLINATION,RA_OF_ASC_NODE,ARG_OF_PERICENTER,MEAN_ANOMALY,BSTAR,MEAN_MOTION_DOT,MEAN_MOTION_DDOT,TLE_LINE0,TLE_LINE1,TLE_LINE2,SEMIMAJOR_AXIS,PERIOD,APOGEE,PERIGEE,DECAYED
53266.0,STARLINK-4058,PAYLOAD,2023-03-04 11:41:02,15.08867921,0.0001675,53.2171,97.6153,80.9112,279.2069,0.0020225,0.00032072,0.0,0 STARLINK-4058,1 53266U 22086AA  23063.48682890  .00032072  00000-0  20225-2 0  9996,2 53266  53.2171  97.6153 0001675  80.9112 279.2069 15.08867921 34643,6917.795,95.436,540.819,538.501,0.0
53266.0,STARLINK-4058,PAYLOAD,2023-03-04 19:37:57,15.08853031,0.000146,53.2171,96.1285,93.1537,266.9622,0.00081955,0.00012784,0.0,0 STARLINK-4058,1 53266U 22086AA  23063.81803114  .00012784  00000-0  81955-3 0  9993,2 53266  53.2171  96.1285 0001460  93.1537 266.9622 15.08853031 34692,6917.841,95.437,540.716,538.696,0.0
53266.0,STARLINK-4058,PAYLOAD,2023-03-05 11:31:49,15.08842878,0.0001702,53.2168,93.1542,96.0339,264.0847,0.0019718,0.00031235,0.0,0 STARLINK-4058,1 53266U 22086AA  23064.48043799  .00031235  00000-0  19718-2 0  9991,2 53266  53.2168  93.1542 0001702  96.0339 264.0847 15.08842878 34798,6917.872,95.437,540.914,538.559,0.0
53266.0,STARLINK-4058,PAYLOAD,2023-03-05 19:28:45,15.08842021,0.0001799,53.2167,91.6655,90.341,269.7788,0.0010448,0.0001638,0.0,0 STARLINK-4058,1 53266U 22086AA  23064.81163987  .00016380  00000-0  10448-2 0  9995,2 53266  53.2167  91.6655 0001799  90.3410 269.7788 15.08842021 34840,6917.874,95.437,540.984,538.495,0.0
53266.0,STARLINK-4058,PAYLOAD,2023-03-06 12:57:59,15.08871082,0.0001809,53.2168,88.3915,114.7809,245.3371,0.0011024,0.00017315,0.0,0 STARLINK-4058,1 53266U 22086AA  23065.54026793  .00017315  00000-0  11024-2 0  9999,2 53266  53.2168  88.3915 0001809 114.7809 245.3371 15.08871082 34957,6917.785,95.436,540.902,538.399,0.0
53266.0,STARLINK-4058,PAYLOAD,2023-03-07 08:02:37,15.08844259,0.0001651,53.2168,84.8236,122.5427,237.5725,0.00051536,7.924e-05,0.0,0 STARLINK-4058,1 53266U 22086AA  23066.33515662  .00007924  00000-0  51536-3 0  9993,2 53266  53.2168  84.8236 0001651 122.5427 237.5725 15.08844259 35078,6917.867,95.437,540.875,538.59,0.0
53266.0,STARLINK-4058,PAYLOAD,2023-03-07 17:34:57,15.08812872,0.0002662,53.2171,83.0401,78.6647,281.4644,0.0020095,0.00031815,0.0,0 STARLINK-4058,1 53266U 22086AA  23066.73260739  .00031815  00000-0  20095-2 0  9990,2 53266  53.2171  83.0401 0002662  78.6647 281.4644 15.08812872 35136,6917.963,95.439,541.67,537.987,0.0
53266.0,STARLINK-4058,PAYLOAD,2023-03-08 17:25:44,15.08842882,0.0001329,53.2164,78.5816,94.6451,265.4693,0.00089566,0.00013996,0.0,0 STARLINK-4058,1 53266U 22086AA  23067.72620470  .00013996  00000-0  89566-3 0  9991,2 53266  53.2164  78.5816 0001329  94.6451 265.4693 15.08842882 35283,6917.872,95.437,540.656,538.817,0.0
53266.0,STARLINK-4058,PAYLOAD,2023-03-09 17:16:30,15.08855887,0.0001198,53.217,74.1213,104.4455,255.667,0.00053335,8.214e-05,0.0,0 STARLINK-4058,1 53266U 22086AA  23068.71979948  .00008214  00000-0  53335-3 0  9990,2 53266  53.2170  74.1213 0001198 104.4455 255.6670 15.08855887 35433,6917.832,95.437,540.526,538.868,0.0
53266.0,STARLINK-4058,PAYLOAD,2023-03-10 04:24:12,15.08853845,0.0002028,53.2165,72.0372,102.8737,257.2481,0.00048788,7.488e-05,0.0,0 STARLINK-4058,1 53266U 22086AA  23069.18347983  .00007488  00000-0  48788-3 0  9998,2 53266  53.2165  72.0372 0002028 102.8737 257.2481 15.08853845 35506,6917.838,95.437,541.106,538.3,0.0
53266.0,STARLINK-4058,PAYLOAD,2023-03-10 17:07:17,15.08848823,0.0002169,53.2184,69.6599,88.7846,271.3395,0.00035936,5.437e-05,0.0,0 STARLINK-4058,1 53266U 22086AA  23069.71339948  .00005437  00000-0  35936-3 0  9992,2 53266  53.2184  69.6599 0002169  88.7846 271.3395 15.08848823 35588,6917.853,95.437,541.219,538.218,0.0
53266.0,STARLINK-4058,PAYLOAD,2023-03-11 07:25:45,15.08840058,0.0001544,53.218,66.9861,92.2994,267.8175,0.0001845,2.65e-05,0.0,0 STARLINK-4058,1 53266U 22086AA  23070.30955999  .00002650  00000-0  18450-3 0  9995,2 53266  53.2180  66.9861 0001544  92.2994 267.8175 15.08840058 35674,6917.88,95.438,540.813,538.677,0.0
53266.0,STARLINK-4058,PAYLOAD,2023-03-12 08:51:56,15.08838289,0.0001645,53.2191,62.2257,94.0334,266.0846,0.00058394,9.017e-05,0.0,0 STARLINK-4058,1 53266U 22086AA  23071.36940939  .00009017  00000-0  58394-3 0  9995,2 53266  53.2191  62.2257 0001645  94.0334 266.0846 15.08838289 35831,6917.886,95.438,540.889,538.613,0.0
53266.0,STARLINK-4058,PAYLOAD,2023-03-13 08:42:43,15.08857342,0.0001916,53.2196,57.7653,80.6253,279.4956,0.00057544,8.886e-05,0.0,0 STARLINK-4058,1 53266U 22086AA  23072.36300517  .00008886  00000-0  57544-3 0  9997,2 53266  53.2196  57.7653 0001916  80.6253 279.4956 15.08857342 36165,6917.827,95.436,541.018,538.367,0.0
53266.0,STARLINK-4058,PAYLOAD,2023-03-14 05:22:44,15.08846289,0.000148,53.2186,53.8977,101.2873,258.8286,0.00014688,2.051e-05,0.0,0 STARLINK-4058,1 53266U 22086AA  23073.22412521  .00002051  00000-0  14688-3 0  9992,2 53266  53.2186  53.8977 0001480 101.2873 258.8286 15.08846289 36114,6917.861,95.437,540.75,538.702,0.0
53266.0,STARLINK-4058,PAYLOAD,2023-03-14 08:33:30,15.08846151,0.0001478,53.2186,53.3032,100.2207,259.8952,0.00013058,1.791e-05,0.0,0 STARLINK-4058,1 53266U 22086AA  23073.35660477  .00001791  00000-0  13058-3 0  9991,2 53266  53.2186  53.3032 0001478 100.2207 259.8952 15.08846151 36319,6917.862,95.437,540.749,538.704,0.0
53266.0,STARLINK-4058,PAYLOAD,2023-03-15 05:13:30,15.0888192,0.0001538,53.218,49.4407,93.6519,266.4649,0.00094904,0.00014866,0.0,0 STARLINK-4058,1 53266U 22086AA  23074.21770880  .00014866  00000-0  94904-3 0  9993,2 53266  53.2180  49.4407 0001538  93.6519 266.4649 15.08881920 36267,6917.752,95.435,540.681,538.553,0.0
53266.0,STARLINK-4058,PAYLOAD,2023-03-15 09:59:39,15.08874461,0.000134,53.2179,48.5495,90.2924,269.8222,0.00071819,0.00011171,0.0,0 STARLINK-4058,1 53266U 22086AA  23074.41642831  .00011171  00000-0  71819-3 0  9995,2 53266  53.2179  48.5495 0001340  90.2924 269.8222 15.08874461 36295,6917.775,95.435,540.567,538.713,0.0
53266.0,STARLINK-4058,PAYLOAD,2023-03-15 22:42:45,15.08829887,0.0001385,53.2179,46.1691,103.5876,256.527,-0.00021646,-3.73e-05,0.0,0 STARLINK-4058,1 53266U 22086AA  23074.94636507 -.00003730  00000-0 -21646-3 0  9993,2 53266  53.2179  46.1691 0001385 103.5876 256.5270 15.08829887 36557,6917.911,95.438,540.734,538.818,0.0
53266.0,STARLINK-4058,PAYLOAD,2023-03-16 05:04:18,15.0884565,0.0001121,53.2178,44.9819,101.4427,258.6691,0.00011759,1.584e-05,0.0,0 STARLINK-4058,1 53266U 22086AA  23075.21131996  .00001584  00000-0  11759-3 0  9993,2 53266  53.2178  44.9819 0001121 101.4427 258.6691 15.08845650 36412,6917.863,95.437,540.504,538.953,0.0
53266.0,STARLINK-4058,PAYLOAD,2023-03-16 08:15:04,15.08848667,0.0001172,53.2178,44.3862,101.4604,258.652,0.00016614,2.358e-05,0.0,0 STARLINK-4058,1 53266U 22086AA  23075.34379847  .00002358  00000-0  16614-3 0  9991,2 53266  53.2178  44.3862 0001172 101.4604 258.6520 15.08848667 36611,6917.854,95.437,540.53,538.908,0.0
53266.0,STARLINK-4058,PAYLOAD,2023-03-16 20:58:09,15.08832628,0.0001461,53.2172,42.0069,101.7835,258.3321,-0.00013848,-2.491e-05,0.0,0 STARLINK-4058,1 53266U 22086AA  23075.87372474 -.00002491  00000-0 -13848-3 0  9994,2 53266  53.2172  42.0069 0001461 101.7835 258.3321 15.08832628 36693,6917.903,95.438,540.779,538.757,0.0
53266.0,STARLINK-4058,PAYLOAD,2023-03-16 22:33:33,15.08833206,0.0001423,53.2176,41.709,107.2559,252.8588,-0.00015834,-2.807e-05,0.0,0 STARLINK-4058,1 53266U 22086AA  23075.93996541 -.00002807  00000-0 -15834-3 0  9996,2 53266  53.2176  41.7090 0001423 107.2559 252.8588 15.08833206 36528,6917.901,95.438,540.751,538.782,0.0
53266.0,STARLINK-4058,PAYLOAD,2023-03-17 08:05:52,15.08833225,0.0001107,53.2169,39.9244,107.3003,252.811,-2.5698e-05,-6.97e-06,0.0,0 STARLINK-4058,1 53266U 22086AA  23076.33740764 -.00000697  00000-0 -25698-4 0  9990,2 53266  53.2169  39.9244 0001107 107.3003 252.8110 15.08833225 36762,6917.901,95.438,540.532,539.0,0.0
53266.0,STARLINK-4058,PAYLOAD,2023-03-17 14:27:24,15.08835671,0.0001041,53.2171,38.7354,96.7381,263.373,1.4037e-05,-6.4e-07,0.0,0 STARLINK-4058,1 53266U 22086AA  23076.60236873 -.00000064  00000-0  14037-4 0  9993,2 53266  53.2171  38.7354 0001041  96.7381 263.3730 15.08835671 36808,6917.894,95.438,540.479,539.038,0.0
53266.0,STARLINK-4058,PAYLOAD,2023-03-18 06:21:16,15.0884191,0.0001202,53.2186,35.7606,94.4783,265.6346,0.00028989,4.329e-05,0.0,0 STARLINK-4058,1 53266U 22086AA  23077.26477090  .00004329  00000-0  28989-3 0  9991,2 53266  53.2186  35.7606 0001202  94.4783 265.6346 15.08841910 36723,6917.875,95.437,540.571,538.908,0.0
53266.0,STARLINK-4058,PAYLOAD,2023-03-18 20:39:44,15.08839642,0.0001199,53.2167,33.0853,95.3833,264.7295,0.00022206,3.248e-05,0.0,0 STARLINK-4058,1 53266U 22086AA  23077.86093376  .00003248  00000-0  22206-3 0  9993,2 53266  53.2167  33.0853 0001199  95.3833 264.7295 15.08839642 36999,6917.881,95.438,540.576,538.917,0.0
53266.0,STARLINK-4058,PAYLOAD,2023-03-19 06:12:02,15.08853388,0.0001343,53.2162,31.301,94.713,265.4016,0.00040281,6.131e-05,0.0,0 STARLINK-4058,1 53266U 22086AA  23078.25836786  .00006131  00000-0  40281-3 0  9994,2 53266  53.2162  31.3010 0001343  94.7130 265.4016 15.08853388 37054,6917.839,95.437,540.634,538.775,0.0
53266.0,STARLINK-4058,PAYLOAD,2023-03-19 14:08:59,15.08840105,0.0001661,53.2188,29.8137,80.9505,279.1675,0.00010145,1.327e-05,0.0,0 STARLINK-4058,1 53266U 22086AA  23078.58957476  .00001327  00000-0  10145-3 0  9998,2 53266  53.2188  29.8137 0001661  80.9505 279.1675 15.08840105 36921,6917.88,95.438,540.894,538.596,0.0
53266.0,STARLINK-4058,PAYLOAD,2023-03-20 06:02:50,15.08853477,0.0001243,53.2175,26.841,84.2178,275.8956,0.00039546,6.014e-05,0.0,0 STARLINK-4058,1 53266U 22086AA  23079.25196884  .00006014  00000-0  39546-3 0  9995,2 53266  53.2175  26.8410 0001243  84.2178 275.8956 15.08853477 37020,6917.839,95.437,540.564,538.844,0.0
